[{"OBJECT_NAME":"STARLINK-31556","OBJECT_ID":"2024-074L","EPOCH":"2026-03-09T02:37:08.523552","MEAN_MOTION":15.27569985,"ECCENTRICITY":8.789e-5,"INCLINATION":43.0011,"RA_OF_ASC_NODE":346.9695,"ARG_OF_PERICENTER":292.0056,"MEAN_ANOMALY":68.0702,"EPHEMERIS_TYPE":0,"CLASSIFICATION_TYPE":"U","NORAD_CAT_ID":59544,"ELEMENT_SET_NO":999,"REV_AT_EPOCH":10592,"BSTAR":-3.0405626e-5,"MEAN_MOTION_DOT":-1.098e-5,"MEAN_MOTION_DDOT":0},{"OBJECT_NAME":"SL-12 R\/B(AUX MOTOR)","OBJECT_ID":"2005-050E","EPOCH":"2026-03-08T07:26:00.239136","MEAN_MOTION":4.2433482,"ECCENTRICITY":0.57510761,"INCLINATION":64.943,"RA_OF_ASC_NODE":98.713,"ARG_OF_PERICENTER":201.1527,"MEAN_ANOMALY":119.6164,"EPHEMERIS_TYPE":0,"CLASSIFICATION_TYPE":"U","NORAD_CAT_ID":28919,"ELEMENT_SET_NO":999,"REV_AT_EPOCH":31206,"BSTAR":0.00050180171,"MEAN_MOTION_DOT":2.02e-6,"MEAN_MOTION_DDOT":0}]
